{
  "norad_id": 37847,
  "name": "GSAT0102 (GALILEO-FM2)",
  "history": [
    {
      "epoch": "2026-03-28T16:54:53.054208Z",
      "apogee_km": 23237.13513875714,
      "perigee_km": 23206.848287058096,
      "latitude_deg": 0.266544520861436,
      "longitude_deg": 83.94286839860999,
      "height_km": 23236.35599557308,
      "semi_major_axis_km": 29600.128712907615,
      "eccentricity": 0.0005116,
      "inclination_deg": 57.0201,
      "raan_deg": 343.9462,
      "arg_perigee_deg": 21.556,
      "mean_anomaly_deg": 158.0911,
      "mean_motion_rev_day": 1.70475653
    }
  ]
}